ACS3                    
1 59588U 24077B   24213.72649841  .00000032  00000+0  71401-4 0  9999
2 59588  97.4037 271.5574 0019449 336.4147  23.6110 13.67694182 13490
